{"type": "FeatureCollection", "features": [ {"type": "Feature", "properties": {"norad_id": 54234, "name": "NOAA 21 (JPSS-2)", "group": "weather", "lat": -27.837041402703733, "lon": 108.38247557424222, "alt_km": 833.9580507472701, "timestamp": "2025-12-22T20:43:45.486350+00:00", "meta": {"OBJECT_NAME": "NOAA 21 (JPSS-2)", "OBJECT_ID": "2022-150A", "EPOCH": "2025-12-22T12:59:07.580544", "MEAN_MOTION": 14.19526653, "ECCENTRICITY": 0.00017835, "INCLINATION": 98.7476, "RA_OF_ASC_NODE": 292.7275, "ARG_OF_PERICENTER": 18.3386, "MEAN_ANOMALY": 341.7854, "EPHEMERIS_TYPE": 0, "CLASSIFICATION_TYPE": "U", "NORAD_CAT_ID": 54234, "ELEMENT_SET_NO": 999, "REV_AT_EPOCH": 16148, "BSTAR": 4.909944e-05, "MEAN_MOTION_DOT": 6e-07, "MEAN_MOTION_DDOT": 0}, "tle": {"line1": "1 54234U 22150A   25356.54105996  .00000060  00000+0  49099-4 0  9998", "line2": "2 54234  98.7476 292.7275 0001783  18.3386 341.7854 14.19526653161487"}}, "geometry": {"type": "Point", "coordinates": [108.38247557424222, -27.837041402703733]}}, {"type": "Feature", "properties": {"norad_id": 54743, "name": "METEOSAT-12 (MTG-I1)", "group": "weather", "lat": 0.2192104039389942, "lon": 42.28956158911834, "alt_km": 35791.058960346134, "timestamp": "2025-12-22T20:43:45.486368+00:00", "meta": {"OBJECT_NAME": "METEOSAT-12 (MTG-I1)", "OBJECT_ID": "2022-170C", "EPOCH": "2025-12-22T06:18:54.979776", "MEAN_MOTION": 1.00270732, "ECCENTRICITY": 0.00015211, "INCLINATION": 0.6966, "RA_OF_ASC_NODE": 25.1701, "ARG_OF_PERICENTER": 239.7344, "MEAN_ANOMALY": 280.5813, "EPHEMERIS_TYPE": 0, "CLASSIFICATION_TYPE": "U", "NORAD_CAT_ID": 54743, "ELEMENT_SET_NO": 999, "REV_AT_EPOCH": 1120, "BSTAR": 0, "MEAN_MOTION_DOT": 1.4e-07, "MEAN_MOTION_DDOT": 0}, "tle": {"line1": "1 54743U 22170C   25356.26313634  .00000014  00000+0  00000+0 0  9997", "line2": "2 54743   0.6966  25.1701 0001521 239.7344 280.5813  1.00270732 11202"}}, "geometry": {"type": "Point", "coordinates": [42.28956158911834, 0.2192104039389942]}}, {"type": "Feature", "properties": {"norad_id": 55973, "name": "TIANMU-1 03", "group": "weather", "lat": -55.56447727906512, "lon": -31.295361127980808, "alt_km": 452.09203190266726, "timestamp": "2025-12-22T20:43:45.486386+00:00", "meta": {"OBJECT_NAME": "TIANMU-1 03", "OBJECT_ID": "2023-039A", "EPOCH": "2025-12-22T15:01:57.655200", "MEAN_MOTION": 15.41196466, "ECCENTRICITY": 0.00039276, "INCLINATION": 97.511, "RA_OF_ASC_NODE": 159.5558, "ARG_OF_PERICENTER": 32.7494, "MEAN_ANOMALY": 327.3995, "EPHEMERIS_TYPE": 0, "CLASSIFICATION_TYPE": "U", "NORAD_CAT_ID": 55973, "ELEMENT_SET_NO": 999, "REV_AT_EPOCH": 15358, "BSTAR": 0.00038312942, "MEAN_MOTION_DOT": 0.0001583, "MEAN_MOTION_DDOT": 0}, "tle": {"line1": "1 55973U 23039A   25356.62636175  .00015830  00000+0  38313-3 0  9990", "line2": "2 55973  97.5110 159.5558 0003927  32.7494 327.3995 15.41196466153585"}}, "geometry": {"type": "Point", "coordinates": [-31.295361127980808, -55.56447727906512]}}, {"type": "Feature", "properties": {"norad_id": 55974, "name": "TIANMU-1 04", "group": "weather", "lat": 2.3931287056246546, "lon": 158.67114530910112, "alt_km": 441.49304288211624, "timestamp": "2025-12-22T20:43:45.486402+00:00", "meta": {"OBJECT_NAME": "TIANMU-1 04", "OBJECT_ID": "2023-039B", "EPOCH": "2025-12-22T14:29:14.250624", "MEAN_MOTION": 15.41537418, "ECCENTRICITY": 0.00045385, "INCLINATION": 97.5041, "RA_OF_ASC_NODE": 158.7195, "ARG_OF_PERICENTER": 26.4289, "MEAN_ANOMALY": 333.7188, "EPHEMERIS_TYPE": 0, "CLASSIFICATION_TYPE": "U", "NORAD_CAT_ID": 55974, "ELEMENT_SET_NO": 999, "REV_AT_EPOCH": 15358, "BSTAR": 0.00039094497, "MEAN_MOTION_DOT": 0.00016341, "MEAN_MOTION_DDOT": 0}, "tle": {"line1": "1 55974U 23039B   25356.60363716  .00016341  00000+0  39094-3 0  9992", "line2": "2 55974  97.5041 158.7195 0004538  26.4289 333.7188 15.41537418153589"}}, "geometry": {"type": "Point", "coordinates": [158.67114530910112, 2.3931287056246546]}}, {"type": "Feature", "properties": {"norad_id": 55975, "name": "TIANMU-1 05", "group": "weather", "lat": 20.228739612319735, "lon": 156.69363089323554, "alt_km": 440.43667119598376, "timestamp": "2025-12-22T20:43:45.486431+00:00", "meta": {"OBJECT_NAME": "TIANMU-1 05", "OBJECT_ID": "2023-039C", "EPOCH": "2025-12-22T14:24:28.522368", "MEAN_MOTION": 15.41152299, "ECCENTRICITY": 0.00040474, "INCLINATION": 97.5087, "RA_OF_ASC_NODE": 159.2089, "ARG_OF_PERICENTER": 51.5703, "MEAN_ANOMALY": 308.5906, "EPHEMERIS_TYPE": 0, "CLASSIFICATION_TYPE": "U", "NORAD_CAT_ID": 55975, "ELEMENT_SET_NO": 999, "REV_AT_EPOCH": 15356, "BSTAR": 0.00038491467, "MEAN_MOTION_DOT": 0.00015881, "MEAN_MOTION_DDOT": 0}, "tle": {"line1": "1 55975U 23039C   25356.60033012  .00015881  00000+0  38491-3 0  9994", "line2": "2 55975  97.5087 159.2089 0004047  51.5703 308.5906 15.41152299153569"}}, "geometry": {"type": "Point", "coordinates": [156.69363089323554, 20.228739612319735]}}, {"type": "Feature", "properties": {"norad_id": 55976, "name": "TIANMU-1 06", "group": "weather", "lat": -7.708056060494287, "lon": 160.97609753249816, "alt_km": 443.65775691145154, "timestamp": "2025-12-22T20:43:45.486452+00:00", "meta": {"OBJECT_NAME": "TIANMU-1 06", "OBJECT_ID": "2023-039D", "EPOCH": "2025-12-22T14:31:53.611104", "MEAN_MOTION": 15.41589161, "ECCENTRICITY": 0.00043167, "INCLINATION": 97.5098, "RA_OF_ASC_NODE": 159.6874, "ARG_OF_PERICENTER": 45.6913, "MEAN_ANOMALY": 314.4686, "EPHEMERIS_TYPE": 0, "CLASSIFICATION_TYPE": "U", "NORAD_CAT_ID": 55976, "ELEMENT_SET_NO": 999, "REV_AT_EPOCH": 15358, "BSTAR": 0.00039392222, "MEAN_MOTION_DOT": 0.00016494, "MEAN_MOTION_DDOT": 0}, "tle": {"line1": "1 55976U 23039D   25356.60548161  .00016494  00000+0  39392-3 0  9993", "line2": "2 55976  97.5098 159.6874 0004316  45.6913 314.4686 15.41589161153589"}}, "geometry": {"type": "Point", "coordinates": [160.97609753249816, -7.708056060494287]}}, {"type": "Feature", "properties": {"norad_id": 56232, "name": "FENGYUN 3G", "group": "weather", "lat": -44.49231549582747, "lon": 50.79296758891576, "alt_km": 404.7599097525808, "timestamp": "2025-12-22T20:43:45.486469+00:00", "meta": {"OBJECT_NAME": "FENGYUN 3G", "OBJECT_ID": "2023-055A", "EPOCH": "2025-12-22T13:30:09.673344", "MEAN_MOTION": 15.5419902, "ECCENTRICITY": 0.0009299, "INCLINATION": 49.9921, "RA_OF_ASC_NODE": 176.742, "ARG_OF_PERICENTER": 192.777, "MEAN_ANOMALY": 167.2963, "EPHEMERIS_TYPE": 0, "CLASSIFICATION_TYPE": "U", "NORAD_CAT_ID": 56232, "ELEMENT_SET_NO": 999, "REV_AT_EPOCH": 15255, "BSTAR": 0.00048213619, "MEAN_MOTION_DOT": 0.00031749, "MEAN_MOTION_DDOT": 0}, "tle": {"line1": "1 56232U 23055A   25356.56261196  .00031749  00000+0  48214-3 0  9995", "line2": "2 56232  49.9921 176.7420 0009299 192.7770 167.2963 15.54199020152551"}}, "geometry": {"type": "Point", "coordinates": [50.79296758891576, -44.49231549582747]}}, {"type": "Feature", "properties": {"norad_id": 57166, "name": "METEOR-M2 3", "group": "weather", "lat": -78.00867877132613, "lon": 95.91368245650597, "alt_km": 817.8564861623718, "timestamp": "2025-12-22T20:43:45.486486+00:00", "meta": {"OBJECT_NAME": "METEOR-M2 3", "OBJECT_ID": "2023-091A", "EPOCH": "2025-12-22T14:22:00.355008", "MEAN_MOTION": 14.24027271, "ECCENTRICITY": 0.00033697, "INCLINATION": 98.6363, "RA_OF_ASC_NODE": 49.9652, "ARG_OF_PERICENTER": 338.7447, "MEAN_ANOMALY": 21.3591, "EPHEMERIS_TYPE": 0, "CLASSIFICATION_TYPE": "U", "NORAD_CAT_ID": 57166, "ELEMENT_SET_NO": 999, "REV_AT_EPOCH": 12938, "BSTAR": 2.9352616e-05, "MEAN_MOTION_DOT": 2.4e-07, "MEAN_MOTION_DDOT": 0}, "tle": {"line1": "1 57166U 23091A   25356.59861522  .00000024  00000+0  29353-4 0  9990", "line2": "2 57166  98.6363  49.9652 0003369 338.7447  21.3591 14.24027271129388"}}, "geometry": {"type": "Point", "coordinates": [95.91368245650597, -78.00867877132613]}}, {"type": "Feature", "properties": {"norad_id": 57399, "name": "TIANMU-1 07", "group": "weather", "lat": -65.5066558614874, "lon": 62.80010210180721, "alt_km": 490.3192028202975, "timestamp": "2025-12-22T20:43:45.486502+00:00", "meta": {"OBJECT_NAME": "TIANMU-1 07", "OBJECT_ID": "2023-101A", "EPOCH": "2025-12-22T14:44:03.075072", "MEAN_MOTION": 15.28203613, "ECCENTRICITY": 0.00051551, "INCLINATION": 97.2859, "RA_OF_ASC_NODE": 46.246, "ARG_OF_PERICENTER": 56.6545, "MEAN_ANOMALY": 303.5187, "EPHEMERIS_TYPE": 0, "CLASSIFICATION_TYPE": "U", "NORAD_CAT_ID": 57399, "ELEMENT_SET_NO": 999, "REV_AT_EPOCH": 13466, "BSTAR": 0.0002833118, "MEAN_MOTION_DOT": 7.718e-05, "MEAN_MOTION_DDOT": 0}, "tle": {"line1": "1 57399U 23101A   25356.61392448  .00007718  00000+0  28331-3 0  9990", "line2": "2 57399  97.2859  46.2460 0005155  56.6545 303.5187 15.28203613134662"}}, "geometry": {"type": "Point", "coordinates": [62.80010210180721, -65.5066558614874]}}, {"type": "Feature", "properties": {"norad_id": 57400, "name": "TIANMU-1 08", "group": "weather", "lat": 64.23551169689112, "lon": -118.34406096160477, "alt_km": 472.51266593875334, "timestamp": "2025-12-22T20:43:45.486521+00:00", "meta": {"OBJECT_NAME": "TIANMU-1 08", "OBJECT_ID": "2023-101B", "EPOCH": "2025-12-22T13:56:36.945888", "MEAN_MOTION": 15.28185238, "ECCENTRICITY": 0.00071226, "INCLINATION": 97.2848, "RA_OF_ASC_NODE": 46.0101, "ARG_OF_PERICENTER": 56.1989, "MEAN_ANOMALY": 303.9928, "EPHEMERIS_TYPE": 0, "CLASSIFICATION_TYPE": "U", "NORAD_CAT_ID": 57400, "ELEMENT_SET_NO": 999, "REV_AT_EPOCH": 13465, "BSTAR": 0.00027343958, "MEAN_MOTION_DOT": 7.444e-05, "MEAN_MOTION_DDOT": 0}, "tle": {"line1": "1 57400U 23101B   25356.58098317  .00007444  00000+0  27344-3 0  9996", "line2": "2 57400  97.2848  46.0101 0007122  56.1989 303.9928 15.28185238134654"}}, "geometry": {"type": "Point", "coordinates": [-118.34406096160477, 64.23551169689112]}}]}